$$SOE
2460721.500000000, A.D. 2025-Feb-15 00:00:00.0000, 3.631213263491015E+08, -1.414465917827710E+08, -3.665455549003385E+06,
2460728.500000000, A.D. 2025-Feb-22 00:00:00.0000, 3.670566229016121E+08, -1.305249060185515E+08, -3.345831916482851E+06,
2460735.500000000, A.D. 2025-Mar-01 00:00:00.0000, 3.706905967037216E+08, -1.194961136523529E+08, -3.023461987212725E+06,
2460742.500000000, A.D. 2025-Mar-08 00:00:00.0000, 3.740200309765401E+08, -1.083691910510785E+08, -2.698608795843840E+06,
2460749.500000000, A.D. 2025-Mar-15 00:00:00.0000, 3.770420183297054E+08, -9.715322573674846E+07, -2.371538277180932E+06,
2460756.500000000, A.D. 2025-Mar-22 00:00:00.0000, 3.797539633456186E+08, -8.585740312342554E+07, -2.042518645988885E+06,
2460763.500000000, A.D. 2025-Mar-29 00:00:00.0000, 3.821535858631981E+08, -7.449099526008242E+07, -1.711820079168171E+06,
2460770.500000000, A.D. 2025-Apr-05 00:00:00.0000, 3.842389252689422E+08, -6.306334848210987E+07, -1.379714475313265E+06,
2460777.500000000, A.D. 2025-Apr-12 00:00:00.0000, 3.860083438578198E+08, -5.158386991046213E+07, -1.046475107999582E+06,
2460784.500000000, A.D. 2025-Apr-19 00:00:00.0000, 3.874605290686796E+08, -4.006201372436924E+07, -7.123762291855887E+05,
2460791.500000000, A.D. 2025-Apr-26 00:00:00.0000, 3.885944948606306E+08, -2.850726745566538E+07, -3.776926657979488E+05,
2460798.500000000, A.D. 2025-May-03 00:00:00.0000, 3.894095823421425E+08, -1.692913833058324E+07, -4.269941988258157E+04,
2460805.500000000, A.D. 2025-May-10 00:00:00.0000, 3.899054596831218E+08, -5.337139695205360E+06, 2.923287243088009E+05,
2460812.500000000, A.D. 2025-May-17 00:00:00.0000, 3.900821213520859E+08, 6.259222389735492E+06, 6.271175781894382E+05,
2460819.500000000, A.D. 2025-May-24 00:00:00.0000, 3.899398868608801E+08, 1.785046228551561E+07, 9.613938898560237E+05,
2460826.500000000, A.D. 2025-May-31 00:00:00.0000, 3.894793994442853E+08, 2.942712791044981E+07, 1.294885633806892E+06,
2460833.500000000, A.D. 2025-Jun-07 00:00:00.0000, 3.887016242851304E+08, 4.097981503795741E+07, 1.627322383322095E+06,
2460840.500000000, A.D. 2025-Jun-14 00:00:00.0000, 3.876078439408396E+08, 5.249918205353037E+07, 1.958435927280750E+06,
2460847.500000000, A.D. 2025-Jun-21 00:00:00.0000, 3.861996522134738E+08, 6.397596185906763E+07, 2.287960751566883E+06,
2460854.500000000, A.D. 2025-Jun-28 00:00:00.0000, 3.844789496131173E+08, 7.540097265044367E+07, 2.615634241027962E+06,
2460861.500000000, A.D. 2025-Jul-05 00:00:00.0000, 3.824479389218834E+08, 8.676512969066963E+07, 2.941196916405063E+06,
2460868.500000000, A.D. 2025-Jul-12 00:00:00.0000, 3.801091196962724E+08, 9.805945724083039E+07, 3.264392748956621E+06,
2460875.500000000, A.D. 2025-Jul-19 00:00:00.0000, 3.774652819275733E+08, 1.092751000420041E+08, 3.584969487588271E+06,
2460882.500000000, A.D. 2025-Jul-26 00:00:00.0000, 3.745194990998058E+08, 1.204033342617769E+08, 3.902678973670125E+06,
2460889.500000000, A.D. 2025-Aug-02 00:00:00.0000, 3.712751207395154E+08, 1.314355779009470E+08, 4.217277438361265E+06,
2460896.500000000, A.D. 2025-Aug-09 00:00:00.0000, 3.677357645110101E+08, 1.423634006252115E+08, 4.528525778410502E+06,
2460903.500000000, A.D. 2025-Aug-16 00:00:00.0000, 3.639053079682287E+08, 1.531785329433378E+08, 4.836189798004143E+06,
2460910.500000000, A.D. 2025-Aug-23 00:00:00.0000, 3.597878802951195E+08, 1.638728747355215E+08, 5.140040391309865E+06,
2460917.500000000, A.D. 2025-Aug-30 00:00:00.0000, 3.553878544036699E+08, 1.744385038323700E+08, 5.439853693908267E+06,
2460924.500000000, A.D. 2025-Sep-06 00:00:00.0000, 3.507098380076433E+08, 1.848676856330166E+08, 5.735411414993338E+06,
2460931.500000000, A.D. 2025-Sep-13 00:00:00.0000, 3.457586620399938E+08, 1.951528812742194E+08, 6.026501301325679E+06,
2460938.500000000, A.D. 2025-Sep-20 00:00:00.0000, 3.405393697291233E+08, 2.052867527003708E+08, 6.312917298477218E+06,
2460945.500000000, A.D. 2025-Sep-27 00:00:00.0000, 3.350572074275542E+08, 2.152621677400169E+08, 6.594459566214338E+06,
2460952.500000000, A.D. 2025-Oct-04 00:00:00.0000, 3.293176152090878E+08, 2.250722057275129E+08, 6.870934577147499E+06,
2460959.500000000, A.D. 2025-Oct-11 00:00:00.0000, 3.233262168950899E+08, 2.347101627297484E+08, 7.142155256140366E+06,
2460966.500000000, A.D. 2025-Oct-18 00:00:00.0000, 3.170888098276503E+08, 2.441695561082247E+08, 7.407941112276182E+06,
2460973.500000000, A.D. 2025-Oct-25 00:00:00.0000, 3.106113545618117E+08, 2.534441284338062E+08, 7.668118351667121E+06,
2460980.500000000, A.D. 2025-Nov-01 00:00:00.0000, 3.038999645471057E+08, 2.625278507777266E+08, 7.922519968894556E+06,
2460987.500000000, A.D. 2025-Nov-08 00:00:00.0000, 2.969608958617344E+08, 2.714149253576881E+08, 8.170985811467752E+06,
2460994.500000000, A.D. 2025-Nov-15 00:00:00.0000, 2.898005371744465E+08, 2.800997874934595E+08, 8.413362599107116E+06,
2461001.500000000, A.D. 2025-Nov-22 00:00:00.0000, 2.824254003635134E+08, 2.885771071076335E+08, 8.649503879064098E+06,
2461008.500000000, A.D. 2025-Nov-29 00:00:00.0000, 2.748421116653312E+08, 2.968417909221282E+08, 8.879270024263188E+06,
2461015.500000000, A.D. 2025-Dec-06 00:00:00.0000, 2.670574010960735E+08, 3.048889852301643E+08, 9.102528472241923E+06,
2461022.500000000, A.D. 2025-Dec-13 00:00:00.0000, 2.590780906013571E+08, 3.127140758960760E+08, 9.319153890705496E+06,
2461029.500000000, A.D. 2025-Dec-20 00:00:00.0000, 2.509110844531846E+08, 3.203126866286495E+08, 9.529028033512607E+06,
2461036.500000000, A.D. 2025-Dec-27 00:00:00.0000, 2.425633608409702E+08, 3.276806781367350E+08, 9.732039597557917E+06,
2461043.500000000, A.D. 2026-Jan-03 00:00:00.0000, 2.340419632134357E+08, 3.348141475705510E+08, 9.928084164661244E+06,
2461050.500000000, A.D. 2026-Jan-10 00:00:00.0000, 2.253539914961101E+08, 3.417094275906644E+08, 1.011706416363992E+07,
2461057.500000000, A.D. 2026-Jan-17 00:00:00.0000, 2.165065934305106E+08, 3.483630849944484E+08, 1.029888882445133E+07,
2461064.500000000, A.D. 2026-Jan-24 00:00:00.0000, 2.075069561246330E+08, 3.547719189442577E+08, 1.047347411981745E+07,
2461071.500000000, A.D. 2026-Jan-31 00:00:00.0000, 1.983622978481098E+08, 3.609329588116620E+08, 1.064074269228800E+07,
2461078.500000000, A.D. 2026-Feb-07 00:00:00.0000, 1.890798601417722E+08, 3.668434616022851E+08, 1.080062375716022E+07,
2461085.500000000, A.D. 2026-Feb-14 00:00:00.0000, 1.796669005014333E+08, 3.725009089682304E+08, 1.095305295756416E+07,
2461092.500000000, A.D. 2026-Feb-21 00:00:00.0000, 1.701306860295711E+08, 3.779030044078627E+08, 1.109797218405840E+07,
2461099.500000000, A.D. 2026-Feb-28 00:00:00.0000, 1.604784869758738E+08, 3.830476718269736E+08, 1.123532955296069E+07,
2461106.500000000, A.D. 2026-Mar-07 00:00:00.0000, 1.507175681093220E+08, 3.879330535280617E+08, 1.136507957344547E+07,
2461113.500000000, A.D. 2026-Mar-14 00:00:00.0000, 1.408551806963155E+08, 3.925575053169813E+08, 1.148718305934665E+07,
2461120.500000000, A.D. 2026-Mar-21 00:00:00.0000, 1.308985568712036E+08, 3.969195916485125E+08, 1.160160685965011E+07,
2461127.500000000, A.D. 2026-Mar-28 00:00:00.0000, 1.208549043916944E+08, 4.010180818568096E+08, 1.170832367639056E+07,
2461134.500000000, A.D. 2026-Apr-04 00:00:00.0000, 1.107314011743239E+08, 4.048519465208627E+08, 1.180731194694081E+07,
2461141.500000000, A.D. 2026-Apr-11 00:00:00.0000, 1.005351898820047E+08, 4.084203536200795E+08, 1.189855573666322E+07,
2461148.500000000, A.D. 2026-Apr-18 00:00:00.0000, 9.027337271956681E+07, 4.117226644867246E+08, 1.198204462721688E+07,
2461155.500000000, A.D. 2026-Apr-25 00:00:00.0000, 7.995300647753938E+07, 4.147584295828543E+08, 1.205777359808299E+07,
2461162.500000000, A.D. 2026-May-02 00:00:00.0000, 6.958109784776561E+07, 4.175273840864079E+08, 1.212574289684930E+07,
2461169.500000000, A.D. 2026-May-09 00:00:00.0000, 5.916459912848070E+07, 4.200294432363977E+08, 1.218595788232088E+07,
2461176.500000000, A.D. 2026-May-16 00:00:00.0000, 4.871040469099423E+07, 4.222646975925236E+08, 1.223842881792769E+07,
2461183.500000000, A.D. 2026-May-23 00:00:00.0000, 3.822534825537410E+07, 4.242334092481196E+08, 1.228317069475442E+07,
2461190.500000000, A.D. 2026-May-30 00:00:00.0000, 2.771619889368201E+07, 4.259360093288847E+08, 1.232020330100542E+07,
2461197.500000000, A.D. 2026-Jun-06 00:00:00.0000, 1.718965543756519E+07, 4.273730935103798E+08, 1.234955129957175E+07,
2461204.500000000, A.D. 2026-Jun-13 00:00:00.0000, 6.652342946115438E+06, 4.285454157630193E+08, 1.237124399412125E+07,
2461211.500000000, A.D. 2026-Jun-20 00:00:00.0000, -3.889189273944382E+06, 4.294538832632570E+08, 1.238531506873757E+07,
2461218.500000000, A.D. 2026-Jun-27 00:00:00.0000, -1.442846980055817E+07, 4.300995521388814E+08, 1.239180242888388E+07,
2461225.500000000, A.D. 2026-Jul-04 00:00:00.0000, -2.495910738955757E+07, 4.304836232800484E+08, 1.239074808032188E+07,
2461232.500000000, A.D. 2026-Jul-11 00:00:00.0000, -3.547479318349490E+07, 4.306074380911499E+08, 1.238219801188388E+07,
2461239.500000000, A.D. 2026-Jul-18 00:00:00.0000, -4.596930275178009E+07, 4.304724742160425E+08, 1.236620207564163E+07,
2461246.500000000, A.D. 2026-Jul-25 00:00:00.0000, -5.643649794595609E+07, 4.300803412455573E+08, 1.234281386240324E+07,
2461253.500000000, A.D. 2026-Aug-01 00:00:00.0000, -6.687032853023870E+07, 4.294327763647059E+08, 1.231209056416300E+07,
2461260.500000000, A.D. 2026-Aug-08 00:00:00.0000, -7.726483338072191E+07, 4.285316399086013E+08, 1.227409280087647E+07,
2461267.500000000, A.D. 2026-Aug-15 00:00:00.0000, -8.761414084679203E+07, 4.273789112821860E+08, 1.222888441035941E+07,
2461274.500000000, A.D. 2026-Aug-22 00:00:00.0000, -9.791246904426181E+07, 4.259766864705654E+08, 1.217653237094411E+07,
2461281.500000000, A.D. 2026-Aug-29 00:00:00.0000, -1.081541283756395E+08, 4.243271757715799E+08, 1.211710695455134E+07,
2461288.500000000, A.D. 2026-Sep-05 00:00:00.0000, -1.183335241505963E+08, 4.224326988819070E+08, 1.205068168023804E+07,
$$EOE